CCSDS_OMM_VERS = 2.0
CREATION_DATE  = 
ORIGINATOR     = 

OBJECT_NAME    = TWILIGHT V
OBJECT_ID      = 2026-004V
CENTER_NAME    = EARTH
REF_FRAME      = TEME
TIME_SYSTEM    = UTC
MEAN_ELEMENT_THEORY = SGP/SGP4

EPOCH          = 2026-01-26T06:34:02.611776
MEAN_MOTION    = 14.87992209
ECCENTRICITY   = .00035938
INCLINATION    = 97.8002
RA_OF_ASC_NODE = 27.2008
ARG_OF_PERICENTER = 213.2943
MEAN_ANOMALY   = 146.8048

EPHEMERIS_TYPE = 0
CLASSIFICATION_TYPE = U
NORAD_CAT_ID   = 67382
ELEMENT_SET_NO = 999
REV_AT_EPOCH   = 218
BSTAR          = .51570533E-3
MEAN_MOTION_DOT = .468E-4
MEAN_MOTION_DDOT = 0

CCSDS_OMM_VERS = 2.0
CREATION_DATE  = 
ORIGINATOR     = 

OBJECT_NAME    = TWILIGHT W
OBJECT_ID      = 2026-004W
CENTER_NAME    = EARTH
REF_FRAME      = TEME
TIME_SYSTEM    = UTC
MEAN_ELEMENT_THEORY = SGP/SGP4

EPOCH          = 2026-01-26T06:37:56.379936
MEAN_MOTION    = 14.87716039
ECCENTRICITY   = .00039671
INCLINATION    = 97.7979
RA_OF_ASC_NODE = 27.1951
ARG_OF_PERICENTER = 232.6006
MEAN_ANOMALY   = 127.4850

EPHEMERIS_TYPE = 0
CLASSIFICATION_TYPE = U
NORAD_CAT_ID   = 67383
ELEMENT_SET_NO = 999
REV_AT_EPOCH   = 218
BSTAR          = .57563161E-3
MEAN_MOTION_DOT = .5194E-4
MEAN_MOTION_DDOT = 0

CCSDS_OMM_VERS = 2.0
CREATION_DATE  = 
ORIGINATOR     = 

OBJECT_NAME    = TWILIGHT X
OBJECT_ID      = 2026-004X
CENTER_NAME    = EARTH
REF_FRAME      = TEME
TIME_SYSTEM    = UTC
MEAN_ELEMENT_THEORY = SGP/SGP4

EPOCH          = 2026-01-26T06:32:42.395424
MEAN_MOTION    = 14.88168808
ECCENTRICITY   = .00029926
INCLINATION    = 97.7977
RA_OF_ASC_NODE = 27.1999
ARG_OF_PERICENTER = 214.0528
MEAN_ANOMALY   = 146.0497

EPHEMERIS_TYPE = 0
CLASSIFICATION_TYPE = U
NORAD_CAT_ID   = 67384
ELEMENT_SET_NO = 999
REV_AT_EPOCH   = 218
BSTAR          = .10535852E-2
MEAN_MOTION_DOT = .9665E-4
MEAN_MOTION_DDOT = 0

CCSDS_OMM_VERS = 2.0
CREATION_DATE  = 
ORIGINATOR     = 

OBJECT_NAME    = TWILIGHT Y
OBJECT_ID      = 2026-004Y
CENTER_NAME    = EARTH
REF_FRAME      = TEME
TIME_SYSTEM    = UTC
MEAN_ELEMENT_THEORY = SGP/SGP4

EPOCH          = 2026-01-26T06:31:30.379296
MEAN_MOTION    = 14.88250636
ECCENTRICITY   = .00029106
INCLINATION    = 97.7989
RA_OF_ASC_NODE = 27.2019
ARG_OF_PERICENTER = 206.7783
MEAN_ANOMALY   = 153.3284

EPHEMERIS_TYPE = 0
CLASSIFICATION_TYPE = U
NORAD_CAT_ID   = 67385
ELEMENT_SET_NO = 999
REV_AT_EPOCH   = 218
BSTAR          = .10161953E-2
MEAN_MOTION_DOT = .9339E-4
MEAN_MOTION_DDOT = 0

CCSDS_OMM_VERS = 2.0
CREATION_DATE  = 
ORIGINATOR     = 

OBJECT_NAME    = TWILIGHT Z
OBJECT_ID      = 2026-004Z
CENTER_NAME    = EARTH
REF_FRAME      = TEME
TIME_SYSTEM    = UTC
MEAN_ELEMENT_THEORY = SGP/SGP4

EPOCH          = 2026-01-26T06:29:32.191872
MEAN_MOTION    = 14.88298889
ECCENTRICITY   = .00017958
INCLINATION    = 97.7968
RA_OF_ASC_NODE = 27.2030
ARG_OF_PERICENTER = 203.7520
MEAN_ANOMALY   = 156.3615

EPHEMERIS_TYPE = 0
CLASSIFICATION_TYPE = U
NORAD_CAT_ID   = 67386
ELEMENT_SET_NO = 999
REV_AT_EPOCH   = 218
BSTAR          = .44542738E-3
MEAN_MOTION_DOT = .4065E-4
MEAN_MOTION_DDOT = 0

CCSDS_OMM_VERS = 2.0
CREATION_DATE  = 
ORIGINATOR     = 

OBJECT_NAME    = TWILIGHT AA
OBJECT_ID      = 2026-004AA
CENTER_NAME    = EARTH
REF_FRAME      = TEME
TIME_SYSTEM    = UTC
MEAN_ELEMENT_THEORY = SGP/SGP4

EPOCH          = 2026-01-26T06:26:12.423840
MEAN_MOTION    = 14.88582333
ECCENTRICITY   = .00029784
INCLINATION    = 97.8020
RA_OF_ASC_NODE = 27.2080
ARG_OF_PERICENTER = 169.4055
MEAN_ANOMALY   = 190.7225

EPHEMERIS_TYPE = 0
CLASSIFICATION_TYPE = U
NORAD_CAT_ID   = 67387
ELEMENT_SET_NO = 999
REV_AT_EPOCH   = 218
BSTAR          = .64434186E-3
MEAN_MOTION_DOT = .5947E-4
MEAN_MOTION_DDOT = 0

CCSDS_OMM_VERS = 2.0
CREATION_DATE  = 
ORIGINATOR     = 

OBJECT_NAME    = TWILIGHT AB
OBJECT_ID      = 2026-004AB
CENTER_NAME    = EARTH
REF_FRAME      = TEME
TIME_SYSTEM    = UTC
MEAN_ELEMENT_THEORY = SGP/SGP4

EPOCH          = 2026-01-26T06:24:24.653664
MEAN_MOTION    = 14.88685968
ECCENTRICITY   = .00026201
INCLINATION    = 97.8008
RA_OF_ASC_NODE = 27.2091
ARG_OF_PERICENTER = 155.0212
MEAN_ANOMALY   = 205.1132

EPHEMERIS_TYPE = 0
CLASSIFICATION_TYPE = U
NORAD_CAT_ID   = 67388
ELEMENT_SET_NO = 999
REV_AT_EPOCH   = 218
BSTAR          = .65322859E-3
MEAN_MOTION_DOT = .6046E-4
MEAN_MOTION_DDOT = 0

CCSDS_OMM_VERS = 2.0
CREATION_DATE  = 
ORIGINATOR     = 

OBJECT_NAME    = TWILIGHT AC
OBJECT_ID      = 2026-004AC
CENTER_NAME    = EARTH
REF_FRAME      = TEME
TIME_SYSTEM    = UTC
MEAN_ELEMENT_THEORY = SGP/SGP4

EPOCH          = 2026-01-26T06:12:48.007872
MEAN_MOTION    = 15.17016039
ECCENTRICITY   = .00051602
INCLINATION    = 97.4571
RA_OF_ASC_NODE = 27.3922
ARG_OF_PERICENTER = 104.8586
MEAN_ANOMALY   = 255.3219

EPHEMERIS_TYPE = 0
CLASSIFICATION_TYPE = U
NORAD_CAT_ID   = 67389
ELEMENT_SET_NO = 999
REV_AT_EPOCH   = 222
BSTAR          = .69117792E-3
MEAN_MOTION_DOT = .13616E-3
MEAN_MOTION_DDOT = 0

CCSDS_OMM_VERS = 2.0
CREATION_DATE  = 
ORIGINATOR     = 

OBJECT_NAME    = TWILIGHT AD
OBJECT_ID      = 2026-004AD
CENTER_NAME    = EARTH
REF_FRAME      = TEME
TIME_SYSTEM    = UTC
MEAN_ELEMENT_THEORY = SGP/SGP4

EPOCH          = 2026-01-26T06:12:05.773824
MEAN_MOTION    = 15.17029888
ECCENTRICITY   = .00054701
INCLINATION    = 97.4572
RA_OF_ASC_NODE = 27.3942
ARG_OF_PERICENTER = 103.1551
MEAN_ANOMALY   = 257.0293

EPHEMERIS_TYPE = 0
CLASSIFICATION_TYPE = U
NORAD_CAT_ID   = 67390
ELEMENT_SET_NO = 999
REV_AT_EPOCH   = 222
BSTAR          = .61069773E-3
MEAN_MOTION_DOT = .12026E-3
MEAN_MOTION_DDOT = 0

CCSDS_OMM_VERS = 2.0
CREATION_DATE  = 
ORIGINATOR     = 

OBJECT_NAME    = TWILIGHT AE
OBJECT_ID      = 2026-004AE
CENTER_NAME    = EARTH
REF_FRAME      = TEME
TIME_SYSTEM    = UTC
MEAN_ELEMENT_THEORY = SGP/SGP4

EPOCH          = 2026-01-26T06:09:23.337504
MEAN_MOTION    = 15.17195702
ECCENTRICITY   = .00068971
INCLINATION    = 97.4522
RA_OF_ASC_NODE = 27.3862
ARG_OF_PERICENTER = 99.6619
MEAN_ANOMALY   = 260.5394

EPHEMERIS_TYPE = 0
CLASSIFICATION_TYPE = U
NORAD_CAT_ID   = 67391
ELEMENT_SET_NO = 999
REV_AT_EPOCH   = 222
BSTAR          = .42245197E-3
MEAN_MOTION_DOT = .8335E-4
MEAN_MOTION_DDOT = 0

CCSDS_OMM_VERS = 2.0
CREATION_DATE  = 
ORIGINATOR     = 

OBJECT_NAME    = TWILIGHT AF
OBJECT_ID      = 2026-004AF
CENTER_NAME    = EARTH
REF_FRAME      = TEME
TIME_SYSTEM    = UTC
MEAN_ELEMENT_THEORY = SGP/SGP4

EPOCH          = 2026-01-26T06:06:32.637888
MEAN_MOTION    = 15.17884056
ECCENTRICITY   = .00075265
INCLINATION    = 97.4500
RA_OF_ASC_NODE = 27.3841
ARG_OF_PERICENTER = 102.3027
MEAN_ANOMALY   = 257.9050

EPHEMERIS_TYPE = 0
CLASSIFICATION_TYPE = U
NORAD_CAT_ID   = 67392
ELEMENT_SET_NO = 999
REV_AT_EPOCH   = 222
BSTAR          = .21888177E-2
MEAN_MOTION_DOT = .44553E-3
MEAN_MOTION_DDOT = 0

CCSDS_OMM_VERS = 2.0
CREATION_DATE  = 
ORIGINATOR     = 

OBJECT_NAME    = TWILIGHT AG
OBJECT_ID      = 2026-004AG
CENTER_NAME    = EARTH
REF_FRAME      = TEME
TIME_SYSTEM    = UTC
MEAN_ELEMENT_THEORY = SGP/SGP4

EPOCH          = 2026-01-26T06:05:03.716736
MEAN_MOTION    = 15.17850740
ECCENTRICITY   = .00076482
INCLINATION    = 97.4527
RA_OF_ASC_NODE = 27.3923
ARG_OF_PERICENTER = 106.4472
MEAN_ANOMALY   = 253.7603

EPHEMERIS_TYPE = 0
CLASSIFICATION_TYPE = U
NORAD_CAT_ID   = 67393
ELEMENT_SET_NO = 999
REV_AT_EPOCH   = 222
BSTAR          = .8789446E-3
MEAN_MOTION_DOT = .17769E-3
MEAN_MOTION_DDOT = 0

