TWILIGHT V              
1 67382U 26004V   26026.27364134  .00004680  00000+0  51571-3 0  9993
2 67382  97.8002  27.2008 0003593 213.2943 146.8048 14.87992209  2180
TWILIGHT W              
1 67383U 26004W   26026.27634699  .00005194  00000+0  57563-3 0  9998
2 67383  97.7979  27.1951 0003967 232.6006 127.4850 14.87716039  2180
TWILIGHT X              
1 67384U 26004X   26026.27271291  .00009665  00000+0  10536-2 0  9999
2 67384  97.7977  27.1999 0002992 214.0528 146.0497 14.88168808  2181
TWILIGHT Y              
1 67385U 26004Y   26026.27187939  .00009339  00000+0  10162-2 0  9998
2 67385  97.7989  27.2019 0002910 206.7783 153.3284 14.88250636  2186
TWILIGHT Z              
1 67386U 26004Z   26026.27051148  .00004065  00000+0  44543-3 0  9993
2 67386  97.7968  27.2030 0001795 203.7520 156.3615 14.88298889  2186
TWILIGHT AA             
1 67387U 26004AA  26026.26819935  .00005947  00000+0  64434-3 0  9990
2 67387  97.8020  27.2080 0002978 169.4055 190.7225 14.88582333  2186
TWILIGHT AB             
1 67388U 26004AB  26026.26695201  .00006046  00000+0  65323-3 0  9998
2 67388  97.8008  27.2091 0002620 155.0212 205.1132 14.88685968  2181
TWILIGHT AC             
1 67389U 26004AC  26026.25888898  .00013616  00000+0  69118-3 0  9991
2 67389  97.4571  27.3922 0005160 104.8586 255.3219 15.17016039  2223
TWILIGHT AD             
1 67390U 26004AD  26026.25840016  .00012026  00000+0  61070-3 0  9996
2 67390  97.4572  27.3942 0005470 103.1551 257.0293 15.17029888  2223
TWILIGHT AE             
1 67391U 26004AE  26026.25652011  .00008335  00000+0  42245-3 0  9994
2 67391  97.4522  27.3862 0006897  99.6619 260.5394 15.17195702  2228
TWILIGHT AF             
1 67392U 26004AF  26026.25454442  .00044553  00000+0  21888-2 0  9994
2 67392  97.4500  27.3841 0007526 102.3027 257.9050 15.17884056  2223
TWILIGHT AG             
1 67393U 26004AG  26026.25351524  .00017769  00000+0  87894-3 0  9991
2 67393  97.4527  27.3923 0007648 106.4472 253.7603 15.17850740  2229
